satname,norad_id,inclination_deg,eccentricity,mean_motion_rev_per_day,perigee_km,apogee_km,l1,l2
STARLINK-1451,45668,53.0538,0.0003039,15.07389656,542.0763722792917,546.283756591055,1 45668U 20035M   26019.12927110  .00018037  00000+0  11944-2 0  9999,2 45668  53.0538 289.3487 0003039 103.4124 256.7204 15.07389656311265
STARLINK-1452,45669,53.0363,0.0004254,15.36537326,453.4506275821341,459.26541594665105,1 45669U 20035N   26019.38255327  .00080247  00000+0  22046-2 0  9999,2 45669  53.0363 255.1469 0004254 149.5722 210.5527 15.36537326311760
STARLINK-1453,45670,53.0523,0.0007613,15.41554167,436.3300196092732,446.7136321375474,1 45670U 20035P   26019.61287872  .00074376  00000+0  17351-2 0  9996,2 45670  53.0523 247.8234 0007613 135.1837 224.9784 15.41554167311771
STARLINK-1454,45671,53.0547,0.0001091,15.2428296,492.1897765037929,493.68904537666003,1 45671U 20035Q   26019.66668981  .01105482  00000+0  41291-1 0  9999,2 45671  53.0547 286.0967 0001091 101.8267  84.8040 15.24282960  5809
STARLINK-1456,45673,53.0543,0.0007241,15.39419704,442.8814995666653,452.76685654472567,1 45673U 20035S   26019.13450213  .00077242  00000+0  19326-2 0  9996,2 45673  53.0543 282.3500 0007241 112.4373 247.7398 15.39419704311369
STARLINK-1457,45674,53.0512,0.0001526,15.62785943,378.5826387781881,380.64510434418844,1 45674U 20035T   26019.66668981  .00080532  00000+0  87553-3 0  9992,2 45674  53.0512 265.2162 0001526  96.9424 151.8032 15.62785943  5922
STARLINK-1458,45675,53.0535,0.0001203,15.20474927,503.5790753597712,505.2350154570968,1 45675U 20035U   26019.66668981  .00092277  00000+0  41348-2 0  9993,2 45675  53.0535 286.2530 0001203  89.8232 313.8748 15.20474927  5699
STARLINK-1460,45676,53.0538,0.0001379,15.06403521,546.2457625234001,548.1557706794283,1 45676U 20035V   26019.47185747  .00007965  00000+0  55294-3 0  9993,2 45676  53.0538 287.5659 0001379  88.6322 271.4825 15.06403521311275
STARLINK-1392,45677,53.0544,0.000159,15.06403257,546.1004468868186,548.3027045538975,1 45677U 20035W   26019.01848340  .00000723  00000+0  67403-4 0  9990,2 45677  53.0544 289.5994 0001590  98.3732 261.7438 15.06403257311240
STARLINK-1394,45679,53.0532,0.0006149,15.40183662,441.37089863070014,449.7626895566764,1 45679U 20035Y   26019.10811627  .00074826  00000+0  18271-2 0  9992,2 45679  53.0532 272.4461 0006149 117.1360 243.0272 15.40183662311490
STARLINK-1402,45685,53.0506,0.0010849,15.36614634,448.71429320428797,463.5432831114331,1 45685U 20035AE  26019.35906567  .00073248  00000+0  20071-2 0  9992,2 45685  53.0506 256.8566 0010849  98.4779 261.7453 15.36614634311746
STARLINK-1404,45686,53.0736,0.0003008,15.11659135,529.0615050770075,533.2181260092375,1 45686U 20035AF  26019.66668981  .00108745  00000+0  62422-2 0  9999,2 45686  53.0736 276.6557 0003008  89.5573  83.0975 15.11659135  5690
STARLINK-1413,45689,53.076,0.0001673,15.12505355,527.4070055530601,529.7179872045481,1 45689U 20035AJ  26019.66668981  .00112355  00000+0  62960-2 0  9991,2 45689  53.0760 276.6372 0001673  58.5334  23.2493 15.12505355  5700
STARLINK-1417,45693,53.0522,0.0007405,15.09609822,532.2704023332808,542.5122998212264,1 45693U 20035AN  26019.12288926  .00026760  00000+0  16569-2 0  9992,2 45693  53.0522 278.4395 0007405  92.1501 268.0338 15.09609822311409
STARLINK-1420,45695,53.0554,0.0001014,15.23102105,495.7932771137539,497.18745154323915,1 45695U 20035AQ  26019.66668981  .01612768  00000+0  61181-1 0  9995,2 45695  53.0554 256.1425 0001014  67.6972 279.7770 15.23102105  5791
STARLINK-1422,45696,53.0895,0.0002326,15.1507238,519.1541461278548,522.3635124676439,1 45696U 20035AR  26019.66668981  .00069746  00000+0  36645-2 0  9995,2 45696  53.0895 276.4683 0002326  85.4554  50.5656 15.15072380  5804
STARLINK-1351,45697,53.0546,0.0002964,15.27243308,482.0235037866905,486.0914126615262,1 45697U 20035AS  26019.66668981  .01598716  00000+0  53668-1 0  9994,2 45697  53.0546 255.2197 0002964 119.3579  63.8107 15.27243308  5749
STARLINK-1398,45699,53.0418,0.0004026,15.71321978,352.40702198459803,357.82863877401905,1 45699U 20035AU  26019.66668981  .00203015  00000+0  15328-2 0  9992,2 45699  53.0418 185.9381 0004026 189.7758  99.3787 15.71321978  5651
STARLINK-1400,45700,53.0542,0.0001193,15.23635712,494.0652331842657,495.7051362775419,1 45700U 20035AV  26019.66668981  .01060421  00000+0  40508-1 0  9995,2 45700  53.0542 256.1130 0001193  92.9968 126.7641 15.23635712  5740
STARLINK-1403,45701,53.0564,0.0001579,15.06399207,546.1204754490673,548.307501291195,1 45701U 20035AW  26019.64417258  .00001303  00000+0  10639-3 0  9990,2 45701  53.0564 256.7919 0001579  89.7472 270.3698 15.06399207311754
STARLINK-1407,45703,53.0376,0.0006215,15.51001117,409.5806668672567,418.02304686634216,1 45703U 20035AY  26019.66668981  .00113408  00000+0  18992-2 0  9994,2 45703  53.0376 192.9869 0006215 288.7881  42.3458 15.51001117  5918
STARLINK-1411,45706,53.0463,0.0001606,15.53257741,406.13216601916884,408.3116232961329,1 45706U 20035BB  26019.54085742  .00061778  00000+0  96433-3 0  9991,2 45706  53.0463 219.9748 0001606 180.2831 179.8178 15.53257741312266
STARLINK-1423,45710,53.0571,0.0001417,15.26529114,485.2249556371844,487.17030807185165,1 45710U 20035BF  26019.66668981  .01061253  00000+0  37187-1 0  9999,2 45710  53.0571 255.8861 0001417  98.7667 298.7457 15.26529114  5745
STARLINK-1433,45711,53.0533,8.69e-05,15.27553459,482.5323265143461,483.7248144704972,1 45711U 20035BG  26019.66668981  .02023999  00000+0  66793-1 0  9991,2 45711  53.0533 255.6895 0000869 128.9137 110.3617 15.27553459  5799
STARLINK-1434,45712,53.0504,0.0004273,15.21170891,499.36760996432076,505.24763793995044,1 45712U 20035BH  26019.64705594  .00047553  00000+0  21074-2 0  9996,2 45712  53.0504 246.2625 0004273  77.5262 282.6212 15.21170891311913
STARLINK-1465,45731,53.0546,3.29e-05,15.22661953,497.5889023287855,498.0413399783565,1 45731U 20038B   26019.66668981  .01654478  00000+0  63409-1 0  9998,2 45731  53.0546  95.9511 0000329 167.1095 117.7993 15.22661953  5796
STARLINK-1471,45735,53.05,0.0002857,15.44844538,429.88929579417345,433.7805137405576,1 45735U 20038F   26019.29057759  .00020612  00000+0  44029-3 0  9991,2 45735  53.0500  18.0314 0002857  75.1535 284.9787 15.44844538309883
STARLINK-1474,45738,53.0295,0.0005676,15.87260609,306.17079964337336,313.7631352672279,1 45738U 20038J   26019.66668981  .00307004  00000+0  11097-2 0  9991,2 45738  53.0295 314.2145 0005676 127.7322  98.9902 15.87260609  6019
STARLINK-1480,45741,53.0534,0.0005911,15.39471759,443.63556918711765,451.70503858177017,1 45741U 20038M   26019.47299762  .00068234  00000+0  17080-2 0  9998,2 45741  53.0534  91.2969 0005911   8.8462 351.2645 15.39471759308876
STARLINK-1500,45744,53.0377,0.0003548,15.31801651,468.00712158751503,472.8668696948216,1 45744U 20038Q   26019.53213804  .00020541  00000+0  66964-3 0  9996,2 45744  53.0377  62.8381 0003548  77.0849 283.0547 15.31801651309275
STARLINK-1504,45746,53.0257,0.0004103,15.49553741,415.24211628067405,420.81905139997343,1 45746U 20038S   26019.27638452  .00030430  00000+0  54816-3 0  9990,2 45746  53.0257  19.9456 0004103  51.8972 308.2405 15.49553741309844
STARLINK-1506,45747,53.0805,0.0004367,15.24329531,489.7989231397987,495.79999904491706,1 45747U 20038T   26019.45432531  .00037114  00000+0  15036-2 0  9997,2 45747  53.0805  69.8265 0004367  85.1768 274.9728 15.24329531309175
STARLINK-1464,45751,53.0533,0.0001282,15.20425246,503.6746113107174,505.43933404531253,1 45751U 20038X   26019.66668981  .01322261  00000+0  55231-1 0  9996,2 45751  53.0533  76.0891 0001282  93.7146 208.8760 15.20425246  5699
STARLINK-1477,45754,53.0515,0.0001715,15.11228161,531.2681845313018,533.6385170216181,1 45754U 20038AA  26019.54674510  .00014450  00000+0  86563-3 0  9992,2 45754  53.0515  75.7913 0001715 228.2138 131.8707 15.11228161309094
STARLINK-1478,45755,53.0539,0.0001558,15.44577601,431.5583749801599,433.6806067027064,1 45755U 20038AB  26019.66668981  .00101432  00000+0  21289-2 0  9991,2 45755  53.0539  73.0942 0001558  69.8721 145.8347 15.44577601  5793
STARLINK-1484,45756,53.0088,0.0004716,15.78233789,332.27865014798954,338.6109004784648,1 45756U 20038AC  26019.66668981  .00130391  00000+0  73697-3 0  9999,2 45756  53.0088 305.8785 0004716 114.8329  91.2811 15.78233789  5836
STARLINK-1493,45759,53.0539,0.000135,15.17680516,511.92243901070196,513.7830062358107,1 45759U 20038AF  26019.66668981  .00066804  00000+0  32608-2 0  9995,2 45759  53.0539  76.3036 0001350  81.4296 351.6383 15.17680516  5746
STARLINK-1494,45760,53.0514,0.0001474,15.64902014,372.5253861151423,374.51577476985585,1 45760U 20038AG  26019.32562650  .00061833  00000+0  62125-3 0  9991,2 45760  53.0514  35.3649 0001474  75.7887 284.3291 15.64902014309643
STARLINK-1502,45764,53.0552,0.0001412,15.1324062,525.3501515790294,527.2999716652321,1 45764U 20038AL  26019.66668981  .00063210  00000+0  35013-2 0  9992,2 45764  53.0552  76.4635 0001412  63.8764 107.8844 15.13240620  5440
STARLINK-1470,45772,53.0456,8.7e-05,15.23706233,494.07518131616325,495.27105027631023,1 45772U 20038AU  26019.48060359  .00018609  00000+0  77689-3 0  9994,2 45772  53.0456  41.9395 0000870 157.4174 202.6861 15.23706233309565
STARLINK-1482,45773,53.0542,0.000134,15.06399431,546.2853049014284,548.1412987823223,1 45773U 20038AV  26019.35666748  .00001013  00000+0  86917-4 0  9991,2 45773  53.0542  58.0833 0001340  91.2538 268.8604 15.06399431309322
STARLINK-1496,45780,53.0547,0.0004884,15.3908127,445.4905096706352,452.15908595473957,1 45780U 20038BC  26019.50137052  .00090633  00000+0  22882-2 0  9992,2 45780  53.0547  51.5893 0004884  34.3316 325.8002 15.39081270309418
STARLINK-1497,45781,53.0314,0.0008728,15.88079677,301.8317621461247,313.5025018389315,1 45781U 20038BD  26019.66668981  .00431767  00000+0  14749-2 0  9990,2 45781  53.0314 326.5710 0008728  97.9362 195.1969 15.88079677  5988
